{"type":"FeatureCollection","features":[{"type":"Feature","properties":{"district":"anantapuram","state":"Andhra Pradesh"},"geometry":{"type":"Polygon","coordinates":[[[77.887,13.9312],[77.8183,13.9349],[77.8064,13.9176],[77.8277,13.8606],[77.776,13.8359],[77.7785,13.8129],[77.7129,13.7905],[77.7087,13.7327],[77.6955,13.7614],[77.6637,13.7523],[77.6702,13.7775],[77.6491,13.7758],[77.6105,13.7554],[77.6367,13.7352],[77.6212,13.7274],[77.5956,13.7436],[77.5561,13.7165],[77.5395,13.7437],[77.5197,13.7438],[77.5215,13.6879],[77.4873,13.7068],[77.4765,13.6776],[77.4498,13.6758],[77.4448,13.6958],[77.4626,13.7436],[77.4575,13.7971],[77.4406,13.8023],[77.4287,13.788],[77.4087,13.7993],[77.4245,13.8351],[77.3729,13.8313],[77.3595,13.8457],[77.32,13.8258],[77.3069,13.8572],[77.2504,13.8395],[77.2338,13.8949],[77.2115,13.8614],[77.2049,13.8812],[77.1969,13.8595],[77.1788,13.8598],[77.177,13.9174],[77.1559,13.8998],[77.1625,13.857],[77.1239,13.8494],[77.1622,13.8207],[77.1666,13.7547],[77.0953,13.7609],[77.0806,13.7374],[77.06,13.7389],[77.0264,13.7714],[77.0114,13.7327],[76.9926,13.7426],[76.9837,13.8042],[76.9684,13.8144],[77.006,13.8501],[77.0173,13.8934],[77.0413,13.8974],[77.0358,13.9256],[76.989,13.9567],[76.9944,13.9815],[76.9311,14.0227],[76.938,14.0476],[76.9715,14.0524],[76.975,14.0653],[76.9463,14.0853],[76.927,14.1272],[76.8837,14.131],[76.8914,14.159],[76.937,14.1659],[76.9416,14.1893],[77.0198,14.1727],[77.0083,14.0981],[77.024,14.0834],[77.0237,14.0533],[77.1211,14.0422],[77.1473,13.9916],[77.1714,14.0086],[77.2426,14.0063],[77.2715,14.0281],[77.2785,14.0069],[77.3135,14.0248],[77.3303,13.9904],[77.3538,13.9823],[77.3437,13.9509],[77.3626,13.9423],[77.3426,13.9122],[77.3483,13.8965],[77.3904,13.8977],[77.3971,13.8805],[77.4256,13.9021],[77.4077,13.9361],[77.4287,13.9433],[77.4306,13.9688],[77.3757,13.9691],[77.3834,14.0074],[77.3262,14.0229],[77.338,14.0538],[77.3954,14.1034],[77.3897,14.1186],[77.3445,14.096],[77.3477,14.1243],[77.3767,14.1296],[77.3897,14.1653],[77.4097,14.1697],[77.5004,14.151],[77.5104,14.172],[77.4901,14.2276],[77.4994,14.2605],[77.4793,14.2848],[77.4436,14.2776],[77.4423,14.3098],[77.4275,14.3048],[77.4259,14.3208],[77.3857,14.3249],[77.375,14.2952],[77.4157,14.212],[77.3838,14.1918],[77.3554,14.23],[77.3593,14.2693],[77.2796,14.2761],[77.2811,14.3311],[77.232,14.3111],[77.1522,14.3377],[77.1319,14.3306],[77.1119,14.2875],[77.1051,14.2133],[77.0753,14.2093],[77.0496,14.2395],[76.9378,14.2401],[76.9249,14.2722],[76.9501,14.294],[76.899,14.3192],[76.8791,14.3464],[76.8831,14.3903],[76.9131,14.4136],[76.9416,14.3995],[76.9438,14.4451],[76.9644,14.4517],[76.9734,14.4783],[76.9065,14.4842],[76.8702,14.4684],[76.8276,14.5231],[76.7997,14.5277],[76.7763,14.5903],[76.7609,14.5963],[76.7713,14.6738],[76.7981,14.7346],[76.7803,14.7793],[76.8338,14.7849],[76.8487,14.804],[76.8438,14.8864],[76.8603,14.8912],[76.8655,14.9376],[76.8645,14.964],[76.8279,14.951],[76.7638,14.9699],[76.757,14.983],[76.7846,15.0167],[76.7708,15.0583],[76.7842,15.0808],[76.7969,15.0908],[76.8374,15.0725],[76.8767,15.0287],[76.9818,15.0104],[77.0007,15.0296],[77.0469,15.0292],[77.041,15.0055],[77.0788,15.0],[77.0821,15.0223],[77.1161,15.0401],[77.1564,15.1399],[77.1926,15.153],[77.2886,15.1247],[77.3156,15.1698],[77.3467,15.1701],[77.3606,15.2156],[77.4202,15.2166],[77.4473,15.1989],[77.4472,15.2142],[77.4786,15.2022],[77.521,15.217],[77.6065,15.1755],[77.6108,15.1978],[77.6563,15.2256],[77.6931,15.1973],[77.69,15.1763],[77.7256,15.1627],[77.7447,15.1215],[77.7832,15.0984],[77.8122,15.1338],[77.8695,15.1274],[77.8882,15.17],[77.9144,15.1635],[77.9194,15.144],[77.9622,15.1492],[77.962,15.132],[78.0183,15.1074],[78.008,15.0698],[77.9878,15.0683],[77.989,15.0396],[78.0068,15.0508],[78.0284,15.0006],[78.137,14.9409],[78.1114,14.92],[78.0922,14.8655],[78.1094,14.8486],[78.1038,14.8186],[78.0793,14.8191],[78.0488,14.7695],[78.0778,14.7481],[78.0667,14.7134],[78.0894,14.7131],[78.1363,14.6767],[78.1261,14.6207],[78.0898,14.6178],[78.0394,14.531],[77.9798,14.533],[77.9592,14.5761],[77.9398,14.5593],[78.0297,14.4562],[78.2375,14.307],[78.4168,14.2707],[78.401,14.199],[78.4247,14.1896],[78.4192,14.1462],[78.4559,14.104],[78.4386,14.0807],[78.4332,14.0199],[78.4616,14.0017],[78.3782,13.9317],[78.3627,13.9455],[78.288,13.8843],[78.2663,13.8864],[78.2561,13.8498],[78.235,13.8379],[78.2532,13.7882],[78.2204,13.7713],[78.1182,13.7769],[78.106,13.8535],[78.0749,13.8549],[78.0412,13.8867],[78.0378,13.8528],[77.9852,13.8617],[77.9658,13.8202],[77.9446,13.82],[77.9425,13.8802],[77.978,13.8933],[77.9786,13.9477],[77.9613,13.95],[77.9116,13.8972],[77.887,13.9312]]]}},{"type":"Feature","properties":{"district":"chittoor","state":"Andhra Pradesh"},"geometry":{"type":"Polygon","coordinates":[[[78.5455,12.7439],[78.552,12.6943],[78.5277,12.679],[78.5109,12.7217],[78.4797,12.73],[78.5105,12.7018],[78.4934,12.7035],[78.4886,12.6633],[78.4577,12.6622],[78.4548,12.612],[78.3683,12.6118],[78.2905,12.6529],[78.2644,12.6918],[78.2327,12.6938],[78.2281,12.6739],[78.1898,12.6813],[78.2289,12.7202],[78.2193,12.747],[78.2411,12.8474],[78.3031,12.8472],[78.3454,12.9281],[78.3783,12.8952],[78.4358,12.9007],[78.4542,12.8532],[78.4561,12.8928],[78.4214,12.9235],[78.4227,12.9686],[78.4579,12.9632],[78.4516,13.0315],[78.5046,13.0528],[78.5019,13.0817],[78.528,13.0974],[78.5088,13.1196],[78.5354,13.1307],[78.5388,13.1516],[78.5691,13.1565],[78.5409,13.1873],[78.5687,13.2043],[78.5589,13.2271],[78.5775,13.262],[78.5557,13.2994],[78.5506,13.276],[78.5288,13.2759],[78.5208,13.2556],[78.4726,13.2911],[78.4717,13.3079],[78.436,13.2984],[78.4245,13.3191],[78.3913,13.3037],[78.367,13.32],[78.3974,13.3323],[78.3552,13.3551],[78.3713,13.391],[78.3626,13.4521],[78.3908,13.5781],[78.2497,13.5743],[78.2277,13.5872],[78.1833,13.5564],[78.1939,13.6162],[78.1605,13.6234],[78.1558,13.6487],[78.0807,13.6353],[78.0583,13.667],[78.0626,13.6856],[78.1054,13.6844],[78.1094,13.7102],[78.0849,13.7335],[78.1182,13.7769],[78.2204,13.7713],[78.248,13.7826],[78.235,13.8379],[78.2561,13.8498],[78.2663,13.8864],[78.288,13.8843],[78.3296,13.9271],[78.3627,13.9455],[78.3782,13.9317],[78.4562,13.9848],[78.4603,13.9499],[78.4864,13.9295],[78.5364,13.9809],[78.5739,13.9736],[78.5624,13.9532],[78.5888,13.9486],[78.5786,13.9012],[78.647,13.8965],[78.6351,13.8584],[78.7141,13.8764],[78.7621,13.8178],[78.7894,13.8689],[78.8723,13.8869],[78.9633,13.8765],[78.9958,13.8969],[79.0765,13.8642],[79.0902,13.8376],[79.1397,13.8493],[79.2072,13.7989],[79.1809,13.7821],[79.216,13.7457],[79.2839,13.7462],[79.3,13.7122],[79.4609,13.7835],[79.4242,13.8576],[79.47,13.8985],[79.5777,13.9071],[79.5849,13.8779],[79.6111,13.8731],[79.6041,13.8371],[79.6589,13.8227],[79.6704,13.9112],[79.7199,13.8896],[79.7186,13.8551],[79.7333,13.843],[79.7602,13.8375],[79.7787,13.8985],[79.8002,13.9122],[79.831,13.8434],[79.8661,13.8532],[79.8647,13.7714],[79.8404,13.7467],[79.8595,13.6952],[79.9465,13.6943],[79.9624,13.6753],[79.9563,13.6397],[79.9896,13.6304],[80.0119,13.5647],[80.0342,13.5625],[80.0398,13.5455],[80.0295,13.5236],[79.9897,13.5268],[79.9902,13.5101],[80.0328,13.5018],[80.036,13.4845],[80.0059,13.4878],[79.9954,13.4595],[79.9619,13.4513],[79.9632,13.4179],[79.9325,13.4044],[79.9536,13.3741],[79.9255,13.3359],[79.9107,13.3437],[79.8512,13.3034],[79.8003,13.3043],[79.7798,13.2821],[79.7541,13.3028],[79.7218,13.2657],[79.7849,13.2235],[79.7444,13.1949],[79.7228,13.2219],[79.6888,13.2074],[79.696,13.2339],[79.6733,13.2295],[79.6843,13.2567],[79.6685,13.2819],[79.6208,13.259],[79.6011,13.2677],[79.5803,13.2454],[79.5487,13.2671],[79.5358,13.3111],[79.4546,13.3243],[79.4014,13.3158],[79.3746,13.303],[79.425,13.2813],[79.4108,13.2122],[79.4361,13.2298],[79.4455,13.2168],[79.4216,13.2085],[79.4238,13.1875],[79.3784,13.1824],[79.3612,13.156],[79.3478,13.163],[79.3546,13.1298],[79.3167,13.1194],[79.3079,13.0969],[79.2674,13.1412],[79.2472,13.1481],[79.2367,13.1268],[79.2183,13.1356],[79.2183,13.1039],[79.1889,13.0846],[79.1694,13.053],[79.1731,13.0193],[79.1527,13.0073],[79.1044,13.0242],[79.0691,13.0142],[79.0533,13.038],[78.9796,13.0765],[78.9144,13.0678],[78.8935,13.0351],[78.9174,13.0325],[78.9286,13.0215],[78.9246,13.0186],[78.8819,13.0198],[78.876,13.0862],[78.8584,13.0711],[78.8081,13.0779],[78.746,13.0454],[78.7024,13.0562],[78.6938,13.0044],[78.6511,13.0179],[78.6137,12.9789],[78.6467,12.919],[78.6257,12.9192],[78.5801,12.7672],[78.5455,12.7439]]]}},{"type":"Feature","properties":{"district":"east godavari","state":"Andhra Pradesh"},"geometry":{"type":"MultiPolygon","coordinates":[[[[82.2896,16.6971],[82.3293,16.7254],[82.3449,16.7051],[82.3371,16.6913],[82.3529,16.7068],[82.3399,16.7182],[82.3682,16.724],[82.3268,16.6688],[82.3185,16.6288],[82.3096,16.6513],[82.3121,16.6024],[82.2838,16.6426],[82.256,16.6537],[82.266,16.6715],[82.2588,16.6901],[82.2896,16.6971]]],[[[82.2976,17.0324],[82.2493,16.9074],[82.3118,16.8401],[82.3257,16.8554],[82.3549,16.8518],[82.3593,16.9443],[82.3243,16.9888],[82.3574,16.9651],[82.3657,16.9021],[82.3429,16.7379],[82.3118,16.7335],[82.2999,16.7143],[82.2937,16.743],[82.2807,16.7228],[82.227,16.7172],[82.21,16.7313],[82.2177,16.7517],[82.1746,16.7251],[82.2585,16.6899],[82.2615,16.6682],[82.254,16.6568],[82.2565,16.6426],[82.2782,16.6363],[82.2924,16.6087],[82.266,16.5976],[82.2599,16.5868],[82.2926,16.6026],[82.2996,16.5918],[82.2679,16.564],[82.3104,16.5682],[82.1126,16.4885],[81.9446,16.3951],[81.854,16.3746],[81.719,16.3101],[81.7028,16.4481],[81.7479,16.4257],[81.8435,16.5138],[81.858,16.6053],[81.7898,16.6954],[81.7815,16.7479],[81.7393,16.8032],[81.7446,16.8561],[81.7193,16.9274],[81.7293,17.0249],[81.6637,17.1357],[81.643,17.2067],[81.6499,17.3126],[81.6087,17.3497],[81.6041,17.4166],[81.5165,17.4585],[81.498,17.5101],[81.5239,17.5726],[81.5029,17.5899],[81.5712,17.6879],[81.5766,17.7261],[81.6231,17.7628],[81.6848,17.7706],[81.7296,17.8193],[81.7824,17.832],[81.7928,17.8525],[81.7583,17.8934],[81.801,17.9361],[81.9731,18.0057],[81.9934,17.9781],[82.0228,17.9285],[81.9947,17.8773],[82.0108,17.8334],[81.9795,17.8409],[81.8582,17.7437],[81.9279,17.7313],[81.9648,17.7374],[81.9555,17.7475],[81.9722,17.758],[82.0088,17.7511],[82.0253,17.7135],[82.022,17.6784],[81.9968,17.6524],[82.0067,17.6095],[82.093,17.6449],[82.128,17.6409],[82.1696,17.6015],[82.22,17.6275],[82.3355,17.575],[82.3235,17.5062],[82.3432,17.4886],[82.3611,17.5093],[82.3689,17.4753],[82.4027,17.4629],[82.4421,17.4727],[82.4617,17.5284],[82.481,17.4968],[82.5484,17.5153],[82.5951,17.459],[82.5467,17.3872],[82.551,17.3335],[82.5145,17.291],[82.5376,17.2463],[82.3674,17.106],[82.3685,17.1187],[82.2976,17.0324]]]]}},{"type":"Feature","properties":{"district":"guntur","state":"Andhra Pradesh"},"geometry":{"type":"Polygon","coordinates":[[[80.6361,16.4902],[80.8115,16.2492],[80.8955,15.9899],[80.8962,15.9129],[80.8285,15.7575],[80.809,15.7318],[80.7971,15.7443],[80.7804,15.7854],[80.8135,15.7396],[80.7932,15.8146],[80.8107,15.8157],[80.8118,15.8329],[80.7904,15.8568],[80.774,15.8663],[80.6876,15.8826],[80.6101,15.8715],[80.5299,15.8521],[80.4283,15.8032],[80.4246,15.8455],[80.4718,15.8878],[80.4355,15.9029],[80.3966,15.8835],[80.3891,15.8947],[80.3691,15.9765],[80.3938,15.9888],[80.4159,15.9799],[80.4124,15.9913],[80.3458,16.0179],[80.3304,16.0057],[80.2967,16.0443],[80.2344,16.0424],[80.2241,16.0222],[80.1899,16.0281],[80.1779,16.0159],[80.1371,16.0351],[80.1329,16.0083],[80.0926,16.0],[80.0615,16.0822],[80.0342,16.0807],[80.0415,16.1167],[80.0133,16.1039],[79.9909,16.1301],[79.8896,16.1564],[79.8664,16.1535],[79.8573,16.1313],[79.9125,16.0614],[79.8828,16.049],[79.8608,16.0068],[79.8962,15.9979],[79.9156,15.9559],[79.8782,15.9111],[79.7934,15.9304],[79.7512,15.854],[79.7751,15.8273],[79.7509,15.8156],[79.7147,15.8327],[79.7201,15.8516],[79.6918,15.8723],[79.6956,15.8901],[79.6544,15.9119],[79.6318,15.902],[79.6084,15.9295],[79.5605,15.9387],[79.552,15.998],[79.5765,16.0185],[79.5471,16.1435],[79.5666,16.1888],[79.5388,16.305],[79.49,16.2939],[79.4556,16.3033],[79.3603,16.2355],[79.3204,16.2348],[79.2175,16.1739],[79.2135,16.2152],[79.192,16.2227],[79.2251,16.2501],[79.2279,16.3368],[79.2115,16.3628],[79.2191,16.4382],[79.2362,16.4585],[79.2253,16.5082],[79.2661,16.5615],[79.4266,16.5825],[79.4972,16.6305],[79.554,16.6346],[79.5999,16.6633],[79.648,16.662],[79.7749,16.7295],[79.8103,16.6905],[79.8618,16.6982],[79.9021,16.6378],[79.9426,16.6326],[80.0479,16.7452],[80.0697,16.8136],[80.0907,16.8257],[80.1118,16.8211],[80.1396,16.7478],[80.1375,16.6555],[80.219,16.6155],[80.3557,16.6121],[80.3799,16.5942],[80.4996,16.5766],[80.6361,16.4902]]]}},{"type":"Feature","properties":{"district":"krishna","state":"Andhra Pradesh"},"geometry":{"type":"Polygon","coordinates":[[[80.809,15.7318],[80.8962,15.9129],[80.8923,16.0138],[80.8001,16.2751],[80.6636,16.4616],[80.4746,16.5884],[80.3799,16.5942],[80.3252,16.6159],[80.219,16.6155],[80.1375,16.6555],[80.1396,16.7478],[80.1118,16.8211],[80.0697,16.8136],[80.0418,16.8261],[80.0331,16.8524],[79.9917,16.8633],[80.0459,16.9653],[80.0842,16.9632],[80.0877,16.9874],[80.1339,16.9854],[80.1821,17.0449],[80.2013,17.0131],[80.2622,17.0106],[80.3014,16.9559],[80.3192,16.8709],[80.3586,16.8549],[80.3729,16.8111],[80.3997,16.8497],[80.4526,16.8153],[80.4564,16.79],[80.5628,16.7628],[80.6041,16.7878],[80.5546,16.8248],[80.565,16.869],[80.5867,16.8739],[80.5842,16.9265],[80.5317,16.9502],[80.5207,16.9364],[80.4913,16.9482],[80.4878,16.9174],[80.3582,16.9706],[80.3879,17.0073],[80.367,17.0566],[80.3901,17.0762],[80.4205,17.0249],[80.4462,17.017],[80.4529,17.037],[80.4822,17.0503],[80.4961,17.1079],[80.5602,17.138],[80.6566,17.0878],[80.6396,17.0551],[80.7257,17.0646],[80.8325,17.0257],[80.8717,17.0586],[80.9341,17.056],[80.9555,17.0324],[80.931,16.938],[81.0298,16.7886],[80.9909,16.7127],[80.9741,16.7076],[81.007,16.6412],[80.9907,16.6307],[80.9611,16.6597],[80.9459,16.6551],[80.9949,16.5882],[81.0014,16.5518],[81.0775,16.5773],[81.0831,16.6024],[81.1409,16.5878],[81.1712,16.6136],[81.227,16.5681],[81.2597,16.6],[81.276,16.6572],[81.3062,16.6816],[81.3244,16.6682],[81.3154,16.614],[81.3431,16.5954],[81.3454,16.5568],[81.3212,16.5094],[81.3618,16.4989],[81.3693,16.4516],[81.4279,16.4029],[81.4684,16.3959],[81.4822,16.3751],[81.5398,16.3796],[81.5707,16.3494],[81.5601,16.3457],[81.5429,16.3582],[81.5188,16.3585],[81.3974,16.344],[81.3829,16.3618],[81.3651,16.3599],[81.3457,16.3307],[81.3799,16.3599],[81.3926,16.3421],[81.2654,16.2813],[81.231,16.2351],[81.2024,16.1454],[81.1826,16.1435],[81.2018,16.1429],[81.1893,16.1035],[81.141,16.0182],[81.1457,15.9738],[80.9932,15.8213],[81.0121,15.7763],[81.001,15.7518],[80.939,15.7182],[80.8379,15.709],[80.809,15.7318]]]}},{"type":"Feature","properties":{"district":"kurnool","state":"Andhra Pradesh"},"geometry":{"type":"Polygon","coordinates":[[[77.9144,15.1635],[77.8817,15.1686],[77.8695,15.1274],[77.8122,15.1338],[77.7871,15.0973],[77.7447,15.1215],[77.7066,15.1782],[77.69,15.1763],[77.6931,15.1973],[77.6702,15.2234],[77.6108,15.1978],[77.6065,15.1755],[77.521,15.217],[77.4786,15.2022],[77.4472,15.2142],[77.4473,15.1989],[77.4202,15.2166],[77.3606,15.2156],[77.3467,15.1701],[77.3156,15.1698],[77.2886,15.1247],[77.1926,15.153],[77.1772,15.1369],[77.1354,15.136],[77.1645,15.1685],[77.1235,15.2333],[77.1641,15.2591],[77.1452,15.2661],[77.1479,15.2857],[77.1154,15.2899],[77.1097,15.3273],[77.0616,15.3219],[77.038,15.3588],[77.0274,15.4352],[76.9704,15.4909],[76.9719,15.5063],[77.0266,15.5],[77.0293,15.6338],[77.0814,15.6528],[77.1162,15.6251],[77.1209,15.6372],[77.125,15.6591],[77.0759,15.6909],[77.0763,15.7214],[77.0432,15.7345],[77.0639,15.8232],[77.0223,15.8318],[77.066,15.8993],[77.1434,15.9406],[77.2489,15.9577],[77.3762,15.9333],[77.4264,15.9423],[77.6064,15.9117],[77.6589,15.8765],[77.7161,15.8866],[77.7992,15.8653],[77.8877,15.8959],[78.0019,15.8592],[78.017,15.8951],[78.0363,15.9021],[78.0637,15.8446],[78.1096,15.8272],[78.1258,15.8489],[78.1647,15.849],[78.18,15.9004],[78.238,15.9291],[78.2567,16.0313],[78.3162,16.0292],[78.421,16.0828],[78.5591,16.0564],[78.617,16.0989],[78.6866,16.0404],[78.7539,16.021],[78.8216,16.0622],[78.8394,16.0942],[78.8378,16.1567],[78.8629,16.1531],[78.8891,16.0986],[78.9134,16.1088],[78.9255,16.0628],[78.9134,15.9929],[78.805,15.8677],[78.7673,15.6715],[78.7656,15.3986],[78.7353,15.2976],[78.7416,15.1744],[78.7612,15.1777],[78.7609,15.0566],[78.7542,15.03],[78.7113,15.0131],[78.7101,14.9572],[78.6832,14.955],[78.6627,14.9204],[78.6277,14.9153],[78.6006,14.941],[78.5474,14.9179],[78.5392,14.9523],[78.4743,14.8924],[78.5179,14.9925],[78.5142,15.0581],[78.4815,15.0504],[78.4871,15.0295],[78.4222,15.0263],[78.3991,14.9537],[78.3415,14.9928],[78.3873,15.0466],[78.2887,15.0654],[78.2796,15.0253],[78.2406,14.9929],[78.2296,14.9471],[78.1714,14.9519],[78.1368,14.938],[78.0284,15.0006],[78.0068,15.0508],[77.989,15.0396],[77.9878,15.0683],[78.008,15.0698],[78.0183,15.1074],[77.962,15.132],[77.9622,15.1492],[77.9156,15.1453],[77.9144,15.1635]]]}},{"type":"Feature","properties":{"district":"nellore","state":"Andhra Pradesh"},"geometry":{"type":"MultiPolygon","coordinates":[[[[80.1496,13.6165],[80.1676,13.5899],[80.1418,13.5449],[80.1265,13.5849],[80.1582,13.591],[80.1249,13.6015],[80.1265,13.5885],[80.1204,13.6057],[80.1376,13.6065],[80.1496,13.6165]]],[[[80.1315,13.7257],[80.1385,13.6129],[80.1087,13.6421],[80.126,13.6704],[80.1068,13.674],[80.1115,13.6926],[80.1068,13.7093],[80.1004,13.7021],[80.1035,13.6543],[80.0888,13.654],[80.0957,13.6688],[80.0793,13.656],[80.0949,13.6474],[80.0726,13.6371],[80.0762,13.6107],[80.051,13.589],[80.1169,13.5028],[80.0694,13.5376],[80.0341,13.5218],[80.0342,13.5625],[80.0119,13.5647],[79.9896,13.6304],[79.9563,13.6397],[79.9624,13.6753],[79.9465,13.6943],[79.8595,13.6952],[79.841,13.7549],[79.8647,13.7714],[79.8713,13.8429],[79.8501,13.8575],[79.831,13.8434],[79.8002,13.9122],[79.7787,13.8985],[79.7602,13.8375],[79.7217,13.8473],[79.7199,13.8896],[79.6704,13.9112],[79.6589,13.8227],[79.6041,13.8371],[79.6111,13.8731],[79.5849,13.8779],[79.5777,13.9071],[79.47,13.8985],[79.4332,13.8777],[79.4481,13.9338],[79.4229,14.0075],[79.4419,14.0924],[79.4074,14.2757],[79.3773,14.3316],[79.3543,14.3448],[79.3072,14.4592],[79.2803,14.4749],[79.2263,14.5781],[79.2047,14.578],[79.1696,14.6122],[79.1672,14.7044],[79.1237,14.8369],[79.0842,14.883],[79.0638,14.9529],[79.0803,15.0766],[79.1145,15.0943],[79.1897,15.0787],[79.2349,15.0992],[79.2897,15.0816],[79.3151,15.1079],[79.3229,15.08],[79.3435,15.1018],[79.351,15.0771],[79.3799,15.0786],[79.4117,15.047],[79.4576,15.0542],[79.5425,15.0134],[79.5534,15.0334],[79.6827,15.0238],[79.7169,15.0389],[79.7339,15.0217],[79.78,15.0509],[79.7951,15.0459],[79.7719,14.9655],[79.8478,14.9435],[79.8932,14.9898],[79.9369,15.0094],[79.9702,15.0054],[79.9898,14.9765],[80.0535,15.0097],[80.0888,14.8115],[80.0807,14.8101],[80.0682,14.8196],[80.0593,14.8199],[80.0818,14.8076],[80.0932,14.8101],[80.1146,14.7312],[80.1368,14.7107],[80.1296,14.6921],[80.1401,14.7032],[80.1357,14.7188],[80.1721,14.6096],[80.199,14.5871],[80.1724,14.5351],[80.1826,14.5304],[80.1699,14.3607],[80.1387,14.2724],[80.1221,14.1146],[80.1299,14.1213],[80.1496,14.0188],[80.1515,14.0304],[80.1599,13.9907],[80.1696,13.9637],[80.1557,14.0176],[80.2449,13.8196],[80.2524,13.7801],[80.2329,13.6637],[80.2688,13.5625],[80.1899,13.6426],[80.171,13.6896],[80.144,13.7015],[80.136,13.7188],[80.1471,13.7243],[80.1315,13.7257]]]]}},{"type":"Feature","properties":{"district":"prakasam","state":"Andhra Pradesh"},"geometry":{"type":"Polygon","coordinates":[[[80.0535,15.0097],[79.9898,14.9765],[79.9702,15.0054],[79.9369,15.0094],[79.8932,14.9898],[79.8478,14.9435],[79.7719,14.9655],[79.7951,15.0459],[79.78,15.0509],[79.7339,15.0217],[79.7169,15.0389],[79.6827,15.0238],[79.5534,15.0334],[79.5425,15.0134],[79.4576,15.0542],[79.4117,15.047],[79.3799,15.0786],[79.351,15.0771],[79.3435,15.1018],[79.3229,15.08],[79.3151,15.1079],[79.2897,15.0816],[79.2464,15.0993],[79.1897,15.0787],[79.1145,15.0943],[79.0803,15.0766],[79.0673,15.0459],[79.0488,15.1333],[79.0592,15.1677],[78.9618,15.1639],[78.9409,15.2289],[78.9146,15.1881],[78.8145,15.2],[78.7416,15.1744],[78.7353,15.2976],[78.7656,15.3986],[78.7673,15.6715],[78.805,15.8677],[78.9134,15.9929],[78.9255,16.0628],[78.9081,16.191],[79.0309,16.2457],[79.2064,16.2217],[79.2175,16.1739],[79.3204,16.2348],[79.3603,16.2355],[79.4556,16.3033],[79.49,16.2939],[79.5388,16.305],[79.5666,16.1888],[79.5471,16.1435],[79.5765,16.0185],[79.552,15.998],[79.5605,15.9387],[79.6084,15.9295],[79.6318,15.902],[79.6544,15.9119],[79.6956,15.8901],[79.6918,15.8723],[79.7201,15.8516],[79.7147,15.8327],[79.7509,15.8156],[79.7751,15.8273],[79.7512,15.854],[79.7934,15.9304],[79.8782,15.9111],[79.9156,15.9559],[79.8962,15.9979],[79.8608,16.0068],[79.8828,16.049],[79.9125,16.0614],[79.8617,16.1152],[79.859,16.1444],[79.8771,16.1573],[79.9909,16.1301],[80.0133,16.1039],[80.0415,16.1167],[80.0342,16.0807],[80.0615,16.0822],[80.0926,16.0],[80.1329,16.0083],[80.1371,16.0351],[80.1779,16.0159],[80.1899,16.0281],[80.2241,16.0222],[80.2344,16.0424],[80.2967,16.0443],[80.3304,16.0057],[80.3458,16.0179],[80.4124,15.9913],[80.4159,15.9799],[80.3938,15.9888],[80.3691,15.9765],[80.3891,15.8947],[80.3966,15.8835],[80.4355,15.9029],[80.4718,15.8878],[80.4246,15.8455],[80.4282,15.8029],[80.3396,15.7474],[80.2704,15.6732],[80.2251,15.5324],[80.2004,15.4982],[80.2118,15.4957],[80.2007,15.4654],[80.1282,15.3774],[80.0982,15.3143],[80.0799,15.316],[80.0993,15.3099],[80.0835,15.2671],[80.0885,15.2193],[80.0782,15.189],[80.046,15.2093],[80.061,15.1904],[80.0813,15.1854],[80.0485,15.0946],[80.0535,15.0097]]]}},{"type":"Feature","properties":{"district":"srikakulam","state":"Andhra Pradesh"},"geometry":{"type":"Polygon","coordinates":[[[84.1246,18.3093],[83.6596,18.0755],[83.611,18.117],[83.5964,18.1468],[83.6033,18.18],[83.5715,18.1873],[83.5658,18.2211],[83.541,18.225],[83.5471,18.2518],[83.5356,18.2307],[83.5145,18.23],[83.5132,18.2569],[83.5308,18.2644],[83.5173,18.2782],[83.4918,18.2888],[83.4787,18.2789],[83.4239,18.3144],[83.4183,18.3639],[83.4371,18.3762],[83.4061,18.4063],[83.4267,18.4335],[83.5649,18.4221],[83.5603,18.4407],[83.5845,18.4581],[83.5514,18.4886],[83.6015,18.5107],[83.5983,18.5531],[83.5533,18.5584],[83.5267,18.538],[83.5116,18.5503],[83.5131,18.5844],[83.5335,18.6112],[83.5373,18.6619],[83.518,18.691],[83.5275,18.7096],[83.6644,18.796],[83.7404,18.7661],[83.7626,18.8158],[83.8161,18.8242],[83.7411,18.9839],[83.7883,19.0078],[83.8148,18.9532],[83.8169,18.9094],[83.8403,18.9041],[83.8371,18.8647],[83.8869,18.8054],[83.902,18.8169],[83.9398,18.7966],[84.0271,18.8022],[84.0818,18.7446],[84.2167,18.7873],[84.2522,18.7725],[84.2839,18.7908],[84.3089,18.7784],[84.3441,18.8119],[84.336,18.8667],[84.3624,18.8511],[84.3716,18.8672],[84.3514,18.8832],[84.3876,18.8777],[84.3653,18.8963],[84.3978,18.8861],[84.4294,18.9137],[84.4156,18.938],[84.4406,18.9669],[84.4151,19.0139],[84.4717,18.9812],[84.4894,19.021],[84.5661,19.065],[84.5901,19.0134],[84.6127,19.0548],[84.6545,19.0523],[84.6646,19.0663],[84.6487,19.0842],[84.6198,19.0765],[84.5918,19.1238],[84.6612,19.1219],[84.665,19.1567],[84.7052,19.149],[84.6975,19.1088],[84.761,19.071],[84.6876,18.9724],[84.6646,18.9657],[84.6832,18.9676],[84.6693,18.9515],[84.5826,18.8763],[84.5535,18.7918],[84.4657,18.7129],[84.4407,18.664],[84.3776,18.606],[84.3549,18.5643],[84.3443,18.5615],[84.3407,18.5571],[84.339,18.5507],[84.3562,18.5568],[84.1257,18.3515],[84.1246,18.3093]]]}},{"type":"Feature","properties":{"district":"visakhapatnam","state":"Andhra Pradesh"},"geometry":{"type":"Polygon","coordinates":[[[82.5379,17.2463],[82.5176,17.2998],[82.5544,17.3431],[82.5496,17.3953],[82.5953,17.4526],[82.5484,17.5153],[82.481,17.4968],[82.4617,17.5284],[82.4475,17.4776],[82.4027,17.4629],[82.3632,17.4792],[82.3611,17.5093],[82.3432,17.4886],[82.3262,17.5016],[82.3355,17.575],[82.2593,17.6134],[82.2085,17.6288],[82.1696,17.6015],[82.128,17.6409],[82.093,17.6449],[82.0067,17.6095],[81.9968,17.6524],[82.022,17.6784],[82.0253,17.7135],[82.0088,17.7511],[81.9722,17.758],[81.9555,17.7475],[81.9648,17.7374],[81.9279,17.7313],[81.859,17.7412],[81.9795,17.8409],[82.0123,17.8367],[81.9947,17.8773],[82.0228,17.9285],[81.9731,18.0057],[82.0017,18.0237],[82.0066,18.0492],[82.0247,18.0579],[82.0597,18.0451],[82.0722,18.0656],[82.1271,18.051],[82.1324,18.0356],[82.1603,18.0436],[82.1774,18.0106],[82.2532,17.9802],[82.2705,17.9977],[82.267,18.0483],[82.2979,18.062],[82.3055,18.0378],[82.3218,18.0502],[82.3298,18.0404],[82.3436,18.075],[82.3334,18.1424],[82.3576,18.1251],[82.3652,18.1397],[82.3103,18.1746],[82.3061,18.1957],[82.3328,18.2158],[82.3213,18.2225],[82.3369,18.2662],[82.3719,18.2741],[82.393,18.3064],[82.3844,18.3187],[82.3487,18.3062],[82.3344,18.3171],[82.3844,18.3691],[82.3613,18.4099],[82.474,18.5368],[82.4992,18.5018],[82.5231,18.5039],[82.5161,18.4559],[82.5302,18.4343],[82.5538,18.4377],[82.5323,18.3934],[82.6005,18.3687],[82.6113,18.3465],[82.5965,18.3409],[82.6021,18.3173],[82.5764,18.3068],[82.591,18.292],[82.5807,18.2701],[82.6269,18.2287],[82.6453,18.2404],[82.6588,18.2866],[82.7671,18.3311],[82.7933,18.395],[82.7762,18.4197],[82.7992,18.4394],[82.8449,18.4098],[82.8846,18.4128],[82.8919,18.3669],[82.9327,18.3514],[82.9764,18.3549],[83.0172,18.3845],[83.0395,18.3701],[83.0933,18.4062],[83.0642,18.3652],[83.071,18.309],[83.094,18.3501],[83.1468,18.3324],[83.1646,18.3004],[83.2189,18.3252],[83.2114,18.2947],[83.2602,18.2658],[83.2653,18.2117],[83.2456,18.2176],[83.2384,18.1921],[83.2141,18.2014],[83.1993,18.1821],[83.1295,18.2514],[83.1551,18.1746],[83.123,18.1693],[83.1177,18.205],[83.0957,18.2121],[83.0991,18.147],[83.133,18.1577],[83.1441,18.1449],[83.0931,18.1238],[83.0926,18.0923],[83.0341,18.0598],[82.9915,17.9906],[83.0008,17.9589],[83.0966,17.9219],[83.1156,17.8601],[83.1302,17.8597],[83.1474,17.82],[83.1917,17.8346],[83.1992,17.8607],[83.2224,17.8589],[83.2468,17.9018],[83.225,17.9355],[83.3021,17.9734],[83.3144,17.9913],[83.3062,18.0119],[83.3508,18.0465],[83.3969,18.038],[83.4093,17.9964],[83.3758,17.9028],[83.3967,17.8939],[83.4203,17.9311],[83.4774,17.9182],[83.4601,17.9046],[83.4574,17.9207],[83.4546,17.8876],[83.4099,17.8435],[83.4101,17.8104],[83.349,17.7507],[83.3446,17.7251],[83.3065,17.6882],[83.2824,17.6893],[83.2726,17.7118],[83.2635,17.711],[83.2824,17.6876],[83.2982,17.6865],[83.2954,17.6751],[83.2354,17.629],[83.2382,17.6118],[83.2135,17.591],[83.0285,17.5112],[82.9949,17.4746],[82.8749,17.4201],[82.8796,17.4363],[82.8699,17.4157],[82.6076,17.2962],[82.5379,17.2463]]]}},{"type":"Feature","properties":{"district":"vizianagaram","state":"Andhra Pradesh"},"geometry":{"type":"Polygon","coordinates":[[[83.1302,17.8597],[83.1156,17.8601],[83.0966,17.9219],[83.0008,17.9589],[82.9915,17.9906],[83.0494,18.0775],[83.0926,18.0923],[83.0931,18.1238],[83.1441,18.1449],[83.133,18.1577],[83.0991,18.147],[83.0957,18.2121],[83.1177,18.205],[83.123,18.1693],[83.1551,18.1746],[83.1295,18.2514],[83.2101,18.181],[83.2141,18.2014],[83.2384,18.1921],[83.2411,18.2155],[83.2635,18.2074],[83.2628,18.257],[83.215,18.2888],[83.2134,18.3272],[83.1646,18.3004],[83.1468,18.3324],[83.094,18.3501],[83.071,18.309],[83.0642,18.3652],[83.0933,18.4062],[83.0658,18.3932],[83.0598,18.4286],[83.0374,18.4189],[83.0373,18.4348],[83.0154,18.4444],[83.0893,18.5379],[83.0325,18.5479],[83.0269,18.568],[83.0539,18.5865],[83.008,18.5884],[83.0213,18.6105],[83.0097,18.6365],[83.051,18.6542],[83.133,18.7724],[83.2017,18.7422],[83.2051,18.7159],[83.2194,18.7658],[83.2661,18.757],[83.2795,18.7896],[83.3563,18.8001],[83.3589,18.832],[83.3728,18.8212],[83.3963,18.8307],[83.4113,18.8593],[83.3466,18.9269],[83.3802,18.9233],[83.3458,18.9571],[83.3414,18.9184],[83.329,18.9169],[83.3185,18.9336],[83.3325,18.9434],[83.3053,18.9897],[83.3292,18.9882],[83.3463,19.0099],[83.3623,18.9947],[83.4089,18.9962],[83.4088,18.9799],[83.4555,18.9456],[83.4485,18.9996],[83.4746,19.0003],[83.478,19.0212],[83.4594,19.0697],[83.4732,19.0778],[83.4936,19.0531],[83.5054,19.0648],[83.5137,19.0248],[83.4936,19.0268],[83.4954,19.0111],[83.5314,19.0054],[83.5523,19.0472],[83.5464,19.0738],[83.5577,19.0514],[83.5788,19.0498],[83.5844,19.0797],[83.6044,19.0882],[83.5943,19.1203],[83.6233,19.1536],[83.697,19.0165],[83.7233,19.0119],[83.7057,18.9852],[83.7263,18.9756],[83.7458,18.9182],[83.8119,18.8534],[83.8161,18.8242],[83.7626,18.8158],[83.7404,18.7661],[83.6644,18.796],[83.5275,18.7096],[83.518,18.691],[83.5373,18.6619],[83.5335,18.6112],[83.5131,18.5844],[83.5116,18.5503],[83.5267,18.538],[83.5533,18.5584],[83.6015,18.5515],[83.6015,18.5107],[83.5514,18.4886],[83.5854,18.4528],[83.5603,18.4407],[83.5649,18.4221],[83.4413,18.439],[83.4061,18.4063],[83.4371,18.3762],[83.4183,18.3639],[83.4239,18.3144],[83.4787,18.2789],[83.4918,18.2888],[83.5173,18.2782],[83.5308,18.2644],[83.5132,18.2569],[83.5145,18.23],[83.5356,18.2307],[83.5471,18.2518],[83.541,18.225],[83.5658,18.2211],[83.5715,18.1873],[83.6033,18.18],[83.5964,18.1468],[83.611,18.117],[83.6596,18.0754],[83.5649,18.0112],[83.5296,17.9493],[83.4776,17.9185],[83.4203,17.9311],[83.3967,17.8939],[83.3704,17.9118],[83.4084,17.977],[83.4,18.0346],[83.3508,18.0465],[83.3062,18.0119],[83.3144,17.9913],[83.3021,17.9734],[83.225,17.9355],[83.2468,17.9018],[83.2224,17.8589],[83.1992,17.8607],[83.1917,17.8346],[83.1474,17.82],[83.1302,17.8597]]]}},{"type":"Feature","properties":{"district":"west godavari","state":"Andhra Pradesh"},"geometry":{"type":"Polygon","coordinates":[[[81.858,16.6053],[81.8435,16.5138],[81.7479,16.4257],[81.7028,16.4481],[81.7106,16.3199],[81.561,16.3454],[81.5707,16.3494],[81.5398,16.3796],[81.4822,16.3751],[81.4684,16.3959],[81.3984,16.422],[81.3624,16.4632],[81.3618,16.4989],[81.3212,16.5094],[81.3454,16.5568],[81.3431,16.5954],[81.3154,16.614],[81.3244,16.6682],[81.3062,16.6816],[81.276,16.6572],[81.2597,16.6],[81.227,16.5681],[81.1712,16.6136],[81.1409,16.5878],[81.0831,16.6024],[81.0775,16.5773],[81.0014,16.5518],[80.9949,16.5882],[80.9459,16.6551],[80.9611,16.6597],[80.9907,16.6307],[81.007,16.6412],[80.9741,16.7076],[81.0034,16.7337],[81.027,16.8071],[80.9275,16.9478],[80.9514,17.0396],[80.9289,17.0567],[80.8588,17.0509],[80.855,17.1114],[80.8703,17.1463],[80.9133,17.146],[80.9138,17.2053],[80.9913,17.1797],[81.0262,17.1867],[81.0465,17.2138],[81.0622,17.2041],[81.1628,17.2326],[81.1806,17.2546],[81.1706,17.2965],[81.1815,17.3222],[81.2672,17.32],[81.3247,17.3906],[81.3718,17.3572],[81.4156,17.3616],[81.4934,17.4488],[81.4982,17.49],[81.5165,17.4585],[81.6041,17.4166],[81.6087,17.3497],[81.6499,17.3126],[81.643,17.2067],[81.6637,17.1357],[81.7293,17.0249],[81.7193,16.9274],[81.7446,16.8561],[81.7393,16.8032],[81.7815,16.7479],[81.7898,16.6954],[81.858,16.6053]]]}},{"type":"Feature","properties":{"district":"ysr kadapa","state":"Andhra Pradesh"},"geometry":{"type":"Polygon","coordinates":[[[79.4609,13.7835],[79.4157,13.7715],[79.4079,13.7495],[79.3,13.7122],[79.2839,13.7462],[79.216,13.7457],[79.1809,13.7821],[79.2072,13.7989],[79.1397,13.8493],[79.0902,13.8376],[79.0765,13.8642],[78.9958,13.8969],[78.9633,13.8765],[78.8723,13.8869],[78.7894,13.8689],[78.7621,13.8178],[78.7141,13.8764],[78.6351,13.8584],[78.647,13.8965],[78.5786,13.9012],[78.5888,13.9486],[78.5624,13.9532],[78.5739,13.9736],[78.5364,13.9809],[78.4864,13.9295],[78.4641,13.9433],[78.4616,14.0017],[78.4332,14.0199],[78.4386,14.0807],[78.4559,14.104],[78.4192,14.1462],[78.4247,14.1896],[78.401,14.199],[78.4168,14.2707],[78.2375,14.307],[78.0297,14.4562],[77.9398,14.5593],[77.9592,14.5761],[77.9798,14.533],[78.0394,14.531],[78.0898,14.6178],[78.1261,14.6207],[78.1325,14.6865],[78.0667,14.7134],[78.0778,14.7481],[78.0488,14.7695],[78.0793,14.8191],[78.1038,14.8186],[78.1094,14.8486],[78.0922,14.8655],[78.1114,14.92],[78.1581,14.9498],[78.2296,14.9471],[78.2406,14.9929],[78.2796,15.0253],[78.2887,15.0654],[78.3873,15.0466],[78.3415,14.9928],[78.3991,14.9537],[78.4222,15.0263],[78.4871,15.0295],[78.4815,15.0504],[78.5142,15.0581],[78.5179,14.9925],[78.4743,14.8924],[78.5392,14.9523],[78.5474,14.9179],[78.6006,14.941],[78.6277,14.9153],[78.6627,14.9204],[78.6832,14.955],[78.7101,14.9572],[78.7113,15.0131],[78.7542,15.03],[78.7514,15.097],[78.7735,15.1896],[78.8145,15.2],[78.9146,15.1881],[78.9409,15.2289],[78.9618,15.1639],[79.0592,15.1677],[79.0488,15.1333],[79.0673,15.0459],[79.0638,14.9529],[79.0842,14.883],[79.1237,14.8369],[79.1672,14.7044],[79.1696,14.6122],[79.2047,14.578],[79.2204,14.585],[79.2803,14.4749],[79.3072,14.4592],[79.4184,14.2381],[79.4419,14.0924],[79.4229,14.0075],[79.4481,13.9338],[79.4242,13.8576],[79.4609,13.7835]]]}},{"type":"Feature","properties":{"district":"adilabad","state":"Telangana"},"geometry":{"type":"Polygon","coordinates":[[[79.858,19.1041],[79.8596,19.0346],[79.9161,19.0474],[79.9331,19.0297],[79.9333,18.845],[79.8629,18.8326],[79.8414,18.8788],[79.8241,18.8369],[79.847,18.7974],[79.8034,18.7222],[79.7558,18.6918],[79.6842,18.6803],[79.6488,18.7271],[79.563,18.7785],[79.5127,18.7896],[79.4062,18.8667],[79.3828,18.8681],[79.3553,18.83],[79.3133,18.8199],[79.2813,18.8292],[79.2385,18.87],[79.1852,18.8733],[79.1057,18.9512],[79.064,19.0319],[78.985,19.0688],[78.9392,19.0647],[78.8968,19.0287],[78.8304,19.0561],[78.7539,19.0121],[78.6818,19.0254],[78.6311,18.9789],[78.5771,18.985],[78.5286,18.9416],[78.4938,18.9637],[78.4383,18.9586],[78.3886,18.9901],[78.2847,18.9408],[78.2604,18.9903],[78.202,18.9984],[78.0691,18.9354],[78.0248,18.8764],[77.9684,18.8753],[77.9441,18.8423],[77.8992,18.8679],[77.8816,18.9085],[77.8405,18.9113],[77.8537,18.9523],[77.8127,18.9495],[77.8171,18.9824],[77.7674,18.9814],[77.7574,19.0286],[77.7617,19.062],[77.7972,19.0513],[77.8027,19.102],[77.8481,19.0901],[77.8311,19.1357],[77.8584,19.1808],[77.8465,19.197],[77.8674,19.2553],[77.9057,19.2672],[77.8619,19.2841],[77.8609,19.3021],[77.8933,19.3212],[77.9489,19.3413],[78.0457,19.2709],[78.0576,19.2397],[78.0823,19.2548],[78.1497,19.2301],[78.1833,19.2415],[78.1972,19.3317],[78.1796,19.353],[78.1822,19.4118],[78.1981,19.4074],[78.2243,19.434],[78.252,19.43],[78.312,19.4659],[78.2791,19.5582],[78.3111,19.5718],[78.311,19.6042],[78.2697,19.6631],[78.2858,19.6897],[78.3161,19.6906],[78.3453,19.7136],[78.3648,19.7673],[78.367,19.7945],[78.3392,19.8135],[78.339,19.8392],[78.2941,19.8496],[78.3076,19.9085],[78.3284,19.9161],[78.3252,19.8905],[78.3841,19.8792],[78.3977,19.8364],[78.4762,19.8164],[78.4939,19.7931],[78.5263,19.8217],[78.6037,19.8175],[78.6959,19.7897],[78.7164,19.7668],[78.7849,19.7787],[78.8076,19.758],[78.8456,19.7584],[78.8588,19.6563],[78.9159,19.6677],[78.969,19.6492],[78.9629,19.6173],[78.9805,19.5851],[78.9546,19.5518],[78.9929,19.562],[79.0184,19.54],[79.1029,19.528],[79.1047,19.5127],[79.1403,19.5011],[79.1778,19.4607],[79.2229,19.4678],[79.2068,19.4917],[79.2366,19.5268],[79.2439,19.6126],[79.3048,19.5902],[79.3143,19.5655],[79.369,19.5712],[79.4136,19.5335],[79.4413,19.5335],[79.4704,19.4975],[79.5134,19.5181],[79.515,19.542],[79.5427,19.5485],[79.5525,19.52],[79.5913,19.5017],[79.6158,19.5586],[79.6397,19.575],[79.7129,19.5833],[79.7403,19.6031],[79.7854,19.5936],[79.8166,19.569],[79.8282,19.537],[79.9402,19.4645],[79.9731,19.401],[79.9618,19.2975],[79.9202,19.2264],[79.9432,19.1706],[79.858,19.1041]]]}},{"type":"Feature","properties":{"district":"hyderabad","state":"Telangana"},"geometry":{"type":"Polygon","coordinates":[[[78.5058,17.4502],[78.5343,17.4585],[78.5163,17.3947],[78.5235,17.3664],[78.5094,17.3253],[78.4704,17.2971],[78.4446,17.3197],[78.4444,17.3416],[78.3955,17.3524],[78.3869,17.4081],[78.4153,17.4296],[78.444,17.3971],[78.443,17.4235],[78.473,17.469],[78.5058,17.4502]]]}},{"type":"Feature","properties":{"district":"karimnagar","state":"Telangana"},"geometry":{"type":"Polygon","coordinates":[[[79.1995,18.8706],[79.2385,18.87],[79.2813,18.8292],[79.3133,18.8199],[79.3553,18.83],[79.3828,18.8681],[79.4062,18.8667],[79.5127,18.7896],[79.563,18.7785],[79.6488,18.7271],[79.6842,18.6803],[79.7558,18.6918],[79.8034,18.7222],[79.847,18.7974],[79.8241,18.8369],[79.8414,18.8788],[79.8629,18.8326],[79.894,18.8308],[79.932,18.7844],[80.0124,18.7668],[80.1066,18.6775],[80.1581,18.6959],[80.189,18.6756],[80.2019,18.6974],[80.2675,18.718],[80.3367,18.5905],[80.262,18.5836],[80.222,18.5479],[80.2114,18.3853],[80.1677,18.3364],[80.1399,18.3684],[80.1361,18.4133],[80.0912,18.4269],[80.0694,18.3823],[80.0237,18.3961],[80.0233,18.438],[80.0718,18.4232],[80.1093,18.4524],[80.0455,18.4774],[80.0788,18.5136],[80.0335,18.5117],[80.0178,18.4642],[79.9857,18.4859],[79.963,18.4728],[79.9476,18.5045],[79.8787,18.5063],[79.9184,18.4548],[79.9156,18.4198],[79.8739,18.4402],[79.826,18.4963],[79.8055,18.4848],[79.8156,18.413],[79.7134,18.4911],[79.5903,18.4664],[79.573,18.4214],[79.5799,18.3473],[79.5657,18.296],[79.6158,18.1817],[79.6028,18.1402],[79.5799,18.1403],[79.587,18.1195],[79.57,18.1214],[79.5566,18.101],[79.4718,18.1101],[79.4545,18.0737],[79.3718,18.0168],[79.2849,18.0129],[79.2505,17.996],[79.2481,17.975],[79.1867,17.9903],[79.1444,17.9817],[79.1424,17.9997],[79.0961,18.0148],[79.1292,18.0762],[79.0305,18.093],[79.0366,18.1227],[79.0095,18.139],[79.0095,18.1934],[78.9594,18.213],[78.9548,18.2511],[78.8918,18.2357],[78.7739,18.2615],[78.7398,18.2151],[78.645,18.2477],[78.5969,18.2468],[78.5631,18.2267],[78.5512,18.258],[78.5172,18.2821],[78.5457,18.3355],[78.5287,18.3829],[78.5608,18.388],[78.5211,18.4747],[78.5586,18.5399],[78.5891,18.5444],[78.5986,18.5756],[78.653,18.5973],[78.6737,18.6227],[78.6468,18.6573],[78.6368,18.7254],[78.5796,18.7359],[78.5557,18.7614],[78.5629,18.7831],[78.5407,18.874],[78.5173,18.9133],[78.5574,18.9725],[78.5862,18.9859],[78.6311,18.9789],[78.6818,19.0254],[78.7539,19.0121],[78.8304,19.0561],[78.8968,19.0287],[78.9392,19.0647],[78.985,19.0688],[79.064,19.0319],[79.1149,18.9401],[79.1995,18.8706]]]}},{"type":"Feature","properties":{"district":"khammam","state":"Telangana"},"geometry":{"type":"Polygon","coordinates":[[[81.0465,17.2138],[81.0262,17.1867],[80.9913,17.1797],[80.9053,17.2013],[80.9133,17.146],[80.8703,17.1463],[80.855,17.1114],[80.8588,17.0509],[80.8325,17.0257],[80.7257,17.0646],[80.6396,17.0551],[80.6566,17.0878],[80.5602,17.138],[80.4961,17.1079],[80.4822,17.0503],[80.4529,17.037],[80.4462,17.017],[80.4205,17.0249],[80.3951,17.0776],[80.367,17.0566],[80.3887,17.0141],[80.3582,16.9706],[80.4878,16.9174],[80.4913,16.9482],[80.5207,16.9364],[80.5317,16.9502],[80.5842,16.9265],[80.5867,16.8739],[80.565,16.869],[80.5546,16.8248],[80.6041,16.7878],[80.5628,16.7628],[80.4564,16.79],[80.4526,16.8153],[80.3997,16.8497],[80.3729,16.8111],[80.3586,16.8549],[80.3192,16.8709],[80.289,16.9768],[80.2622,17.0106],[80.2013,17.0131],[80.1943,17.0425],[80.1821,17.0449],[80.1339,16.9854],[80.0877,16.9874],[80.0842,16.9632],[80.0459,16.9653],[80.0495,17.0193],[79.8699,17.1719],[79.8724,17.2026],[79.8916,17.2119],[79.8829,17.2564],[79.8182,17.2699],[79.7851,17.3135],[79.8116,17.3304],[79.8644,17.3271],[79.8886,17.3656],[79.9237,17.3688],[79.9278,17.3847],[79.9619,17.3983],[79.9788,17.3943],[79.9921,17.3565],[80.0465,17.3406],[80.0727,17.3609],[80.1034,17.3575],[80.1285,17.3855],[80.1541,17.3718],[80.1614,17.4484],[80.1208,17.4401],[80.1201,17.4757],[80.0923,17.4903],[80.0763,17.5215],[80.0794,17.5694],[80.0464,17.5899],[80.0823,17.6534],[80.0368,17.6912],[80.0439,17.7091],[80.0686,17.7053],[80.1564,17.747],[80.1653,17.7059],[80.231,17.7459],[80.2378,17.7303],[80.2485,17.7372],[80.2461,17.8218],[80.2759,17.9032],[80.2697,17.9623],[80.3021,17.9676],[80.3875,18.0762],[80.4522,18.0542],[80.4723,18.1162],[80.4604,18.1289],[80.4925,18.1334],[80.5298,18.0932],[80.5578,18.0968],[80.5904,18.0764],[80.6102,18.1066],[80.6313,18.1048],[80.624,18.134],[80.6486,18.1281],[80.655,18.169],[80.5304,18.2556],[80.4968,18.2608],[80.47,18.2952],[80.455,18.4461],[80.3736,18.4686],[80.3692,18.5286],[80.3949,18.5669],[80.3816,18.5936],[80.4021,18.6072],[80.4502,18.6264],[80.5107,18.6157],[80.6327,18.5188],[80.6508,18.4723],[80.6989,18.436],[80.691,18.4193],[80.7265,18.409],[80.7163,18.3829],[80.7446,18.3022],[80.7883,18.2498],[80.7333,18.2188],[80.7346,18.1717],[80.7979,18.1663],[80.8296,18.2341],[80.8591,18.226],[80.8675,18.2073],[80.8482,18.1977],[80.862,18.1327],[80.9737,18.1681],[80.944,18.081],[80.966,18.0435],[81.0043,17.8383],[81.0377,17.7862],[81.0736,17.7863],[81.0891,17.8109],[81.1596,17.8526],[81.2634,17.8105],[81.4093,17.8048],[81.4194,17.8206],[81.4668,17.8249],[81.4858,17.8026],[81.5687,17.8279],[81.6112,17.8154],[81.657,17.8728],[81.6883,17.8848],[81.7032,17.8611],[81.7583,17.8934],[81.7928,17.8525],[81.7824,17.832],[81.7095,17.8051],[81.6848,17.7706],[81.6231,17.7628],[81.5766,17.7261],[81.5712,17.6879],[81.5029,17.5899],[81.5239,17.5726],[81.5014,17.5394],[81.4934,17.4488],[81.4336,17.3749],[81.3852,17.3551],[81.3247,17.3906],[81.2672,17.32],[81.1815,17.3222],[81.1706,17.2965],[81.1806,17.2546],[81.1628,17.2326],[81.0622,17.2041],[81.0465,17.2138]]]}},{"type":"Feature","properties":{"district":"mahabubnagar","state":"Telangana"},"geometry":{"type":"Polygon","coordinates":[[[77.6064,15.9117],[77.5095,15.9209],[77.5101,16.0023],[77.4907,16.0306],[77.5029,16.0732],[77.4929,16.0838],[77.5094,16.1035],[77.4867,16.1158],[77.4836,16.1586],[77.4953,16.213],[77.5112,16.2172],[77.4888,16.2243],[77.4876,16.2498],[77.5012,16.2678],[77.5338,16.2626],[77.565,16.2977],[77.5903,16.2869],[77.5916,16.3375],[77.4945,16.3758],[77.4117,16.3627],[77.3429,16.3797],[77.2847,16.403],[77.2352,16.4681],[77.292,16.4736],[77.2966,16.4915],[77.3663,16.4841],[77.3791,16.5107],[77.4153,16.5178],[77.4157,16.544],[77.3914,16.5652],[77.4642,16.5842],[77.4538,16.6138],[77.4694,16.6469],[77.4329,16.6376],[77.4166,16.6628],[77.4617,16.6724],[77.4675,16.6968],[77.4668,16.7119],[77.4234,16.7145],[77.4375,16.7832],[77.4711,16.7791],[77.4534,16.909],[77.4677,16.9171],[77.4784,16.9902],[77.4994,17.0073],[77.4603,17.0928],[77.4817,17.1305],[77.4752,17.1713],[77.5355,17.1628],[77.548,17.1368],[77.576,17.1267],[77.5851,17.147],[77.619,17.1495],[77.6132,17.1636],[77.6451,17.1785],[77.6998,17.1704],[77.6926,17.1946],[77.7148,17.2048],[77.7371,17.177],[77.7344,17.2266],[77.7887,17.2271],[77.7622,17.1985],[77.7834,17.1499],[77.7503,17.0581],[77.7835,17.0391],[77.7584,17.0073],[77.7536,16.9657],[77.7261,16.9391],[77.7399,16.9088],[77.7333,16.8768],[77.7906,16.8706],[77.8093,16.8854],[77.8166,16.8608],[77.8366,16.8526],[77.9047,16.857],[77.9189,16.8432],[77.9507,16.8632],[77.9725,16.8455],[77.9855,16.8693],[77.9639,16.8649],[77.9646,16.885],[78.0094,16.9016],[78.0089,16.9458],[77.9835,16.9557],[77.9978,16.9738],[77.9741,17.0042],[77.9315,17.0243],[77.918,17.0584],[77.9455,17.0698],[77.9309,17.0818],[77.9855,17.0991],[78.0228,17.1689],[78.0626,17.1948],[78.0804,17.1911],[78.0898,17.1668],[78.0802,17.1213],[78.0971,17.0972],[78.1268,17.1082],[78.1773,17.0957],[78.1746,17.1292],[78.1877,17.1418],[78.1665,17.1518],[78.168,17.1669],[78.2213,17.2019],[78.2888,17.22],[78.3042,17.1419],[78.3614,17.0807],[78.3446,17.0701],[78.4548,16.977],[78.5046,17.0084],[78.5788,16.9468],[78.6435,16.9503],[78.7437,16.9045],[78.7214,16.8659],[78.7295,16.8549],[78.7446,16.8489],[78.7713,16.8751],[78.7778,16.8626],[78.7714,16.8384],[78.7976,16.8174],[78.7861,16.7549],[78.756,16.7391],[78.7507,16.701],[78.7119,16.6752],[78.7106,16.6429],[78.6673,16.6428],[78.7113,16.5755],[78.6784,16.5477],[78.6667,16.5635],[78.6596,16.5361],[78.6328,16.5445],[78.611,16.5133],[78.7111,16.5318],[78.7875,16.5103],[78.8377,16.5413],[78.9057,16.5442],[78.9249,16.5112],[79.0615,16.4539],[79.2115,16.3628],[79.2279,16.3368],[79.2251,16.2501],[79.2075,16.2307],[79.1766,16.2171],[79.1332,16.2364],[79.0309,16.2457],[78.9411,16.2098],[78.9081,16.191],[78.9219,16.1219],[78.9105,16.1052],[78.8727,16.1102],[78.8629,16.1531],[78.8378,16.1567],[78.8365,16.0874],[78.775,16.0236],[78.7137,16.0267],[78.617,16.0989],[78.5591,16.0564],[78.421,16.0828],[78.3162,16.0292],[78.2567,16.0313],[78.238,15.9291],[78.18,15.9004],[78.1647,15.849],[78.1258,15.8489],[78.1096,15.8272],[78.0637,15.8446],[78.0363,15.9021],[78.017,15.8951],[78.0019,15.8592],[77.8877,15.8959],[77.7992,15.8653],[77.7161,15.8866],[77.6589,15.8765],[77.6064,15.9117]]]}},{"type":"Feature","properties":{"district":"medak","state":"Telangana"},"geometry":{"type":"Polygon","coordinates":[[[78.3702,17.5999],[78.3301,17.5008],[78.2916,17.4877],[78.2977,17.4517],[78.2576,17.4151],[78.2133,17.436],[78.2086,17.4827],[78.1833,17.4864],[78.1891,17.476],[78.1528,17.461],[78.1377,17.4835],[78.0803,17.4935],[78.0769,17.5209],[78.0541,17.5053],[78.0494,17.4562],[77.9869,17.5038],[77.9779,17.4824],[77.9605,17.4803],[77.9701,17.5153],[77.9337,17.5356],[77.9183,17.5708],[77.8697,17.5778],[77.8514,17.6403],[77.8236,17.6431],[77.8117,17.6232],[77.7798,17.6361],[77.7434,17.6218],[77.7699,17.599],[77.7571,17.5562],[77.6863,17.5243],[77.6833,17.504],[77.5917,17.5327],[77.5898,17.5628],[77.5484,17.5495],[77.5274,17.5732],[77.5016,17.5409],[77.49,17.5663],[77.4399,17.5815],[77.4503,17.6913],[77.562,17.7471],[77.566,17.7641],[77.5045,17.7826],[77.5109,17.8014],[77.526,17.8268],[77.5497,17.818],[77.5727,17.8728],[77.5967,17.8705],[77.5852,17.9082],[77.6166,17.9029],[77.6237,17.9578],[77.644,17.9464],[77.6534,17.9694],[77.6462,17.9932],[77.6067,18.018],[77.5922,18.0102],[77.5457,18.0538],[77.6006,18.0994],[77.5978,18.1518],[77.5643,18.19],[77.585,18.2167],[77.5725,18.2406],[77.5815,18.2563],[77.6252,18.2829],[77.6644,18.2813],[77.6864,18.26],[77.7208,18.2583],[77.7408,18.2043],[77.7686,18.1884],[77.8508,18.205],[77.8673,18.1888],[77.9014,18.1918],[77.9006,18.1451],[77.9338,18.1495],[77.9072,18.1211],[77.9271,18.1148],[77.924,18.1029],[77.9026,18.1034],[77.8935,18.0879],[77.9247,18.0969],[77.9376,18.1101],[77.9994,18.1112],[78.0896,18.0739],[78.1088,18.0953],[78.1126,18.0766],[78.1362,18.0737],[78.1723,18.1119],[78.1679,18.1762],[78.1982,18.2166],[78.2132,18.176],[78.2679,18.1414],[78.3215,18.1973],[78.3834,18.1216],[78.4362,18.1635],[78.4507,18.1298],[78.485,18.1297],[78.4899,18.1621],[78.5629,18.1851],[78.5631,18.2267],[78.5969,18.2468],[78.6579,18.2459],[78.7398,18.2151],[78.7739,18.2615],[78.8918,18.2357],[78.9363,18.2539],[78.959,18.2488],[78.9594,18.213],[79.0095,18.1934],[79.0095,18.139],[79.0366,18.1227],[79.0305,18.093],[79.1292,18.0762],[79.1061,18.049],[79.1092,18.0225],[79.0701,18.0161],[79.0443,18.0294],[78.9937,17.9957],[78.9614,18.0306],[78.9442,17.9905],[78.9236,17.9895],[78.9017,17.9556],[78.8748,17.9594],[78.8223,17.8751],[78.8661,17.8625],[78.853,17.7477],[78.8209,17.7384],[78.8055,17.7025],[78.7806,17.7043],[78.7721,17.6723],[78.7484,17.6792],[78.714,17.6626],[78.658,17.6918],[78.6194,17.6636],[78.5931,17.6969],[78.5539,17.683],[78.521,17.6958],[78.4961,17.6801],[78.4453,17.7086],[78.4247,17.6973],[78.4147,17.6659],[78.3818,17.6615],[78.3765,17.6292],[78.355,17.6196],[78.3702,17.5999]]]}},{"type":"Feature","properties":{"district":"nalgonda","state":"Telangana"},"geometry":{"type":"Polygon","coordinates":[[[79.7227,16.6926],[79.648,16.662],[79.5999,16.6633],[79.554,16.6346],[79.4972,16.6305],[79.4266,16.5825],[79.2661,16.5615],[79.2253,16.5082],[79.2362,16.4585],[79.2191,16.4382],[79.2115,16.3628],[79.0098,16.4834],[78.9249,16.5112],[78.9057,16.5442],[78.8377,16.5413],[78.7875,16.5103],[78.7111,16.5318],[78.6074,16.5174],[78.6328,16.5445],[78.6596,16.5361],[78.6667,16.5635],[78.6784,16.5477],[78.7113,16.5755],[78.6673,16.6428],[78.7106,16.6429],[78.7119,16.6752],[78.7507,16.701],[78.7519,16.7322],[78.7819,16.7473],[78.7904,16.7737],[78.7976,16.8174],[78.7714,16.8384],[78.7778,16.8626],[78.7713,16.8751],[78.7446,16.8489],[78.7295,16.8549],[78.7214,16.8659],[78.7437,16.9045],[78.6951,16.9278],[78.7004,16.9573],[78.7832,16.9681],[78.824,17.0126],[78.7819,17.0334],[78.8318,17.0374],[78.849,17.074],[78.818,17.101],[78.835,17.1054],[78.8327,17.1199],[78.7795,17.1466],[78.7847,17.1884],[78.7629,17.2143],[78.8074,17.2041],[78.8205,17.2315],[78.7492,17.2672],[78.741,17.2921],[78.7632,17.3065],[78.7406,17.3211],[78.7637,17.3439],[78.7343,17.3548],[78.7541,17.4396],[78.7071,17.4347],[78.7206,17.473],[78.7051,17.4843],[78.6841,17.5925],[78.714,17.6626],[78.7484,17.6792],[78.7721,17.6723],[78.7806,17.7043],[78.8055,17.7025],[78.8209,17.7384],[78.853,17.7477],[78.8634,17.805],[78.9823,17.7842],[79.0182,17.7046],[79.0455,17.718],[79.1175,17.6629],[79.1549,17.5737],[79.2004,17.6197],[79.2197,17.5588],[79.2504,17.5565],[79.2682,17.5736],[79.3114,17.5241],[79.39,17.4949],[79.4611,17.5103],[79.5114,17.4896],[79.5312,17.5183],[79.5791,17.4914],[79.6218,17.4859],[79.6471,17.4987],[79.647,17.4658],[79.7138,17.4269],[79.7509,17.4248],[79.7794,17.3815],[79.7597,17.369],[79.8121,17.2744],[79.8829,17.2564],[79.8916,17.2119],[79.8676,17.18],[79.906,17.1465],[79.9056,17.1288],[79.9392,17.1233],[80.0495,17.0193],[80.0371,16.9365],[79.9917,16.8633],[80.0331,16.8524],[80.0418,16.8261],[80.0697,16.8136],[80.0479,16.7452],[79.9582,16.642],[79.9021,16.6378],[79.8618,16.6982],[79.8103,16.6905],[79.7749,16.7295],[79.7227,16.6926]]]}},{"type":"Feature","properties":{"district":"nizamabad","state":"Telangana"},"geometry":{"type":"Polygon","coordinates":[[[78.1462,18.0807],[78.1187,18.074],[78.1041,18.0951],[78.0896,18.0739],[78.0741,18.0767],[77.9994,18.1112],[77.9376,18.1101],[77.9247,18.0969],[77.8935,18.0879],[77.924,18.1029],[77.9271,18.1148],[77.9072,18.1211],[77.9338,18.1495],[77.9006,18.1451],[77.9014,18.1918],[77.8673,18.1888],[77.8508,18.205],[77.7686,18.1884],[77.7408,18.2043],[77.7208,18.2583],[77.6864,18.26],[77.6644,18.2813],[77.599,18.2729],[77.55,18.2913],[77.5669,18.3179],[77.5195,18.3493],[77.5552,18.4179],[77.5259,18.4274],[77.5285,18.4405],[77.5852,18.4454],[77.5462,18.4634],[77.5706,18.4669],[77.5765,18.4838],[77.6011,18.4742],[77.5863,18.5029],[77.6014,18.5219],[77.5973,18.5475],[77.6488,18.5526],[77.6576,18.5272],[77.7365,18.5548],[77.7481,18.6053],[77.7281,18.6642],[77.7576,18.7071],[77.7864,18.6841],[77.8375,18.8075],[77.9076,18.8295],[77.9426,18.8223],[77.9601,18.8686],[78.0248,18.8764],[78.0691,18.9354],[78.2329,19.0026],[78.2681,18.9817],[78.2847,18.9408],[78.3886,18.9901],[78.4383,18.9586],[78.4938,18.9637],[78.5286,18.9416],[78.5182,18.9073],[78.5407,18.874],[78.5629,18.7831],[78.5557,18.7614],[78.5796,18.7359],[78.6368,18.7254],[78.6468,18.6573],[78.6737,18.6227],[78.653,18.5973],[78.5986,18.5756],[78.5891,18.5444],[78.5586,18.5399],[78.5192,18.4676],[78.5458,18.4435],[78.5417,18.4086],[78.5608,18.388],[78.5287,18.3829],[78.5457,18.3355],[78.5172,18.2821],[78.5547,18.2513],[78.5629,18.1851],[78.4987,18.1685],[78.485,18.1297],[78.4507,18.1298],[78.4362,18.1635],[78.3834,18.1216],[78.3215,18.1973],[78.2679,18.1414],[78.2132,18.176],[78.1982,18.2166],[78.1715,18.1872],[78.1723,18.1119],[78.1462,18.0807]]]}},{"type":"Feature","properties":{"district":"ranga reddy","state":"Telangana"},"geometry":{"type":"Polygon","coordinates":[[[78.0503,17.1919],[77.9855,17.0991],[77.9309,17.0818],[77.9455,17.0698],[77.918,17.0584],[77.9354,17.0195],[77.9919,16.9852],[77.9835,16.9557],[78.0089,16.9458],[78.0094,16.9016],[77.9646,16.885],[77.9639,16.8649],[77.9855,16.8693],[77.9725,16.8455],[77.9507,16.8632],[77.9189,16.8432],[77.9047,16.857],[77.823,16.857],[77.8093,16.8854],[77.7906,16.8706],[77.7333,16.8768],[77.7399,16.9088],[77.7261,16.9391],[77.7536,16.9657],[77.7584,17.0073],[77.7835,17.0391],[77.7503,17.0581],[77.7834,17.1499],[77.7622,17.1985],[77.7887,17.2271],[77.7344,17.2266],[77.7371,17.177],[77.7148,17.2048],[77.6926,17.1946],[77.6998,17.1704],[77.6451,17.1785],[77.6132,17.1636],[77.619,17.1495],[77.5851,17.147],[77.576,17.1267],[77.548,17.1368],[77.5355,17.1628],[77.4752,17.1713],[77.4817,17.1305],[77.4626,17.1041],[77.3763,17.1379],[77.36,17.1616],[77.3988,17.2088],[77.3804,17.2198],[77.4149,17.2299],[77.4545,17.2759],[77.434,17.2883],[77.4551,17.3379],[77.4516,17.3705],[77.4793,17.3696],[77.4826,17.3545],[77.5208,17.3621],[77.5355,17.4041],[77.5107,17.4125],[77.5101,17.4273],[77.5335,17.441],[77.5726,17.4295],[77.5732,17.4542],[77.6106,17.4442],[77.6109,17.4699],[77.6404,17.476],[77.6528,17.5033],[77.6481,17.4812],[77.684,17.4729],[77.6863,17.5243],[77.7571,17.5562],[77.7699,17.599],[77.7434,17.6218],[77.7798,17.6361],[77.7936,17.6219],[77.8236,17.6431],[77.8514,17.6403],[77.8697,17.5778],[77.9183,17.5708],[77.9337,17.5356],[77.9701,17.5153],[77.9605,17.4803],[77.9779,17.4824],[77.9869,17.5038],[78.0494,17.4562],[78.0541,17.5053],[78.0769,17.5209],[78.0803,17.4935],[78.1377,17.4835],[78.1528,17.461],[78.1891,17.476],[78.1833,17.4864],[78.2086,17.4827],[78.2133,17.436],[78.2576,17.4151],[78.2977,17.4517],[78.2916,17.4877],[78.349,17.5197],[78.3435,17.5399],[78.3702,17.5999],[78.355,17.6196],[78.3765,17.6292],[78.3818,17.6615],[78.4147,17.6659],[78.4247,17.6973],[78.4453,17.7086],[78.4961,17.6801],[78.521,17.6958],[78.5539,17.683],[78.5931,17.6969],[78.6194,17.6636],[78.6691,17.6912],[78.714,17.6626],[78.6817,17.5738],[78.7072,17.5201],[78.7051,17.4843],[78.7206,17.473],[78.7071,17.4347],[78.7541,17.4396],[78.7343,17.3548],[78.7637,17.3439],[78.7406,17.3211],[78.7632,17.3065],[78.741,17.2921],[78.7565,17.2596],[78.8205,17.2315],[78.8074,17.2041],[78.7629,17.2143],[78.7847,17.1884],[78.7795,17.1466],[78.8327,17.1199],[78.835,17.1054],[78.818,17.101],[78.849,17.074],[78.8318,17.0374],[78.7819,17.0334],[78.824,17.0126],[78.7832,16.9681],[78.7113,16.9632],[78.6806,16.9255],[78.6435,16.9503],[78.5788,16.9468],[78.5046,17.0084],[78.4548,16.977],[78.3446,17.0701],[78.3614,17.0807],[78.3042,17.1419],[78.2932,17.208],[78.2769,17.224],[78.2566,17.2018],[78.2213,17.2019],[78.168,17.1669],[78.1665,17.1518],[78.1877,17.1418],[78.1746,17.1292],[78.1773,17.0957],[78.1268,17.1082],[78.0971,17.0972],[78.0802,17.1213],[78.0933,17.1472],[78.0804,17.1911],[78.0503,17.1919]],[[78.473,17.469],[78.443,17.4235],[78.444,17.3971],[78.4153,17.4296],[78.3841,17.395],[78.3955,17.3524],[78.4444,17.3416],[78.4446,17.3197],[78.4704,17.2971],[78.5094,17.3253],[78.5345,17.4508],[78.473,17.469]]]}},{"type":"Feature","properties":{"district":"warangal","state":"Telangana"},"geometry":{"type":"Polygon","coordinates":[[[80.1541,17.3718],[80.1285,17.3855],[80.1034,17.3575],[80.0727,17.3609],[80.0465,17.3406],[79.9921,17.3565],[79.9788,17.3943],[79.9619,17.3983],[79.9278,17.3847],[79.9237,17.3688],[79.8886,17.3656],[79.8644,17.3271],[79.8116,17.3304],[79.7851,17.3135],[79.7597,17.369],[79.7794,17.3815],[79.7509,17.4248],[79.7138,17.4269],[79.647,17.4658],[79.6471,17.4987],[79.6218,17.4859],[79.5791,17.4914],[79.5312,17.5183],[79.5114,17.4896],[79.4611,17.5103],[79.39,17.4949],[79.3114,17.5241],[79.2682,17.5736],[79.2504,17.5565],[79.2197,17.5588],[79.2004,17.6197],[79.1549,17.5737],[79.1175,17.6629],[79.0455,17.718],[79.0182,17.7046],[78.9823,17.7842],[78.8634,17.805],[78.8661,17.8625],[78.8242,17.87],[78.8266,17.8896],[78.8748,17.9594],[78.9017,17.9556],[78.9236,17.9895],[78.9442,17.9905],[78.9614,18.0306],[78.9937,17.9957],[79.0443,18.0294],[79.1424,17.9997],[79.1444,17.9817],[79.1867,17.9903],[79.2481,17.975],[79.2505,17.996],[79.2849,18.0129],[79.3718,18.0168],[79.4545,18.0737],[79.4718,18.1101],[79.5063,18.0968],[79.587,18.1195],[79.5799,18.1403],[79.6028,18.1402],[79.6166,18.1779],[79.5657,18.296],[79.5799,18.3473],[79.573,18.4214],[79.5903,18.4664],[79.7134,18.4911],[79.8156,18.413],[79.8055,18.4848],[79.826,18.4963],[79.8739,18.4402],[79.9156,18.4198],[79.9184,18.4548],[79.8787,18.5063],[79.9476,18.5045],[79.963,18.4728],[79.9857,18.4859],[80.0178,18.4642],[80.0335,18.5117],[80.0788,18.5136],[80.0455,18.4774],[80.1093,18.4524],[80.0718,18.4232],[80.0233,18.438],[80.0237,18.3961],[80.0694,18.3823],[80.0912,18.4269],[80.1361,18.4133],[80.1399,18.3684],[80.1677,18.3364],[80.2114,18.3853],[80.222,18.5479],[80.262,18.5836],[80.3418,18.5864],[80.367,18.6047],[80.3949,18.5669],[80.3692,18.5286],[80.3736,18.4686],[80.4577,18.4422],[80.4503,18.3994],[80.4679,18.3802],[80.47,18.2952],[80.4968,18.2608],[80.5304,18.2556],[80.6585,18.1651],[80.6426,18.1487],[80.6486,18.1281],[80.6205,18.1291],[80.6366,18.1192],[80.6313,18.1048],[80.6102,18.1066],[80.5904,18.0764],[80.5578,18.0968],[80.5298,18.0932],[80.4925,18.1334],[80.4604,18.1289],[80.4723,18.1162],[80.4522,18.0542],[80.3875,18.0762],[80.3021,17.9676],[80.2697,17.9623],[80.2759,17.9032],[80.2461,17.8218],[80.2439,17.7332],[80.231,17.7459],[80.1653,17.7059],[80.1564,17.747],[80.0686,17.7053],[80.0439,17.7091],[80.0368,17.6912],[80.0823,17.6534],[80.0464,17.5899],[80.0794,17.5694],[80.0763,17.5215],[80.0923,17.4903],[80.1201,17.4757],[80.1208,17.4401],[80.1614,17.4484],[80.1541,17.3718]]]}}]}